ID,fName,lName,email,postCode,city,country
1,Aleshia,Tomkiewicz,atomkiewicz@hotmail.com,CT2 7PP,St. Stephens Ward,UK
2,Evan,Zigomalas,evan.zigomalas@gmail.com,HP11 2AX,Abbey Ward,UK
3,France,Andrade,france.andrade@hotmail.com,BH6 3BE,East Southbourne and Tuckton W,UK
4,Ulysses,Mcwalters,ulysses@hotmail.com,DN36 5RP,Hawerby cum Beesby,UK
5,Tyisha,Veness,tyisha.veness@hotmail.com,B70 9DT,Greets Green and Lyng Ward,UK
6,Eric,Rampy,erampy@rampy.co.uk,NN14 2GH,Desborough,UK
7,Marg,Grasmick,marg@hotmail.com,SO14 3TY,Bargate Ward,UK
8,Laquita,Hisaw,laquita@yahoo.com,NE29 7AD,Chirton Ward,UK
9,Lura,Manzella,lura@hotmail.com,BS16 4LL,Staple Hill Ward,UK
10,Yuette,Klapec,yuette.klapec@klapec.co.uk,DE6 1QN,Parwich,UK
11,Fernanda,Writer,fernanda@writer.co.uk,DA2 7PP,Wilmington,UK
12,Charlesetta,Erm,charlesetta_erm@gmail.com,S40 4LY,Loundsley Green Ward,UK
13,Corrinne,Jaret,corrinne_jaret@gmail.com,DG8 7DE,Dee Ward,UK
14,Niesha,Bruch,niesha.bruch@yahoo.com,EH52 5TL,"Broxburn, Uphall and Winchburg",UK
15,Rueben,Gastellum,rueben_gastellum@gastellum.co.uk,BS23 3HG,Weston-Super-Mare,UK
16,Michell,Throssell,mthrossell@throssell.co.uk,IP25 6JQ,Carbrooke,UK
17,Edgar,Kanne,edgar.kanne@yahoo.com,BH25 5DF,New Milton,UK
18,Dewitt,Julio,dewitt.julio@hotmail.com,EX39 5DJ,Parkham,UK
19,Charisse,Spinello,charisse_spinello@spinello.co.uk,S4 7WN,Darnall Ward,UK
20,Mee,Lapinski,mee.lapinski@yahoo.com,TQ3 1SA,Marldon,UK
21,Peter,Gutierres,peter_gutierres@yahoo.com,LL19 9EG,Prestatyn Community,UK
22,Octavio,Salvadore,octavio.salvadore@yahoo.com,DY5 2QP,Lye and Stourbridge North Ward,UK
23,Martha,Teplica,mteplica@teplica.co.uk,CR6 9SW,Warlingham,UK
24,Tamesha,Veigel,tveigel@veigel.co.uk,PO30 5AL,Newport,UK
25,Tess,Sitra,tess_sitra@hotmail.com,PO19 1RH,Chichester,UK
26,Leonard,Kufner,lkufner@kufner.co.uk,HS1 2PZ,Steornabhagh a Deas Ward,UK
27,Svetlana,Tauras,svetlana_tauras@tauras.co.uk,DN33 1AU,South Ward,UK
28,Pok,Molaison,pok@yahoo.com,TR7 1LS,Newquay,UK
29,Augustine,Growcock,augustine.growcock@growcock.co.uk,RG7 4RF,Brimpton,UK
30,Karma,Quarto,kquarto@gmail.com,B33 0NH,Shard End Ward,UK
31,Reed,Weisinger,reed_weisinger@yahoo.com,SG6 3LE,Letchworth South West Ward,UK
32,German,Zelaya,german@hotmail.com,HU8 9PZ,Longhill Ward,UK
33,Milly,Savidge,milly@gmail.com,DY11 9BW,Franche Ward,UK
34,Luis,Ear,luis@hotmail.com,SY11 4PH,Whittington,UK
35,Ciara,Cobbley,ciara_cobbley@hotmail.com,DL3 0JF,Cockerton West Ward,UK
36,Alethea,Mould,alethea@hotmail.com,BN12 6PR,Castle Ward,UK
37,Margurite,Loperfido,mloperfido@gmail.com,SN10 3DU,Devizes,UK
38,Vernice,Sperazza,vernice@yahoo.com,SL3 0PY,Colnbrook with Poyle,UK
39,Vicente,Rawicki,vicente_rawicki@hotmail.com,WS9 8UR,Aldridge Central and South War,UK
40,Craig,Cua,craig@hotmail.com,SW15 2RP,East Putney Ward,UK
41,Jenise,Dulle,jenise.dulle@hotmail.com,CB22 3BB,Sawston,UK
42,Marylin,Cornelison,marylin_cornelison@yahoo.com,WF1 1DR,Wakefield North Ward,UK
43,Marget,Gunst,mgunst@yahoo.com,TR9 6NJ,St. Enoder,UK
44,Annett,Bunselmeyer,abunselmeyer@hotmail.com,PO33 1HH,Ryde,UK
45,Kip,Turziano,kip.turziano@yahoo.com,SS15 6LE,Laindon Park Ward,UK
46,Melina,Orizabal,melina@gmail.com,SO41 1DL,Lymington and Pennington,UK
47,Tina,Clapham,tclapham@gmail.com,HP21 8PP,Aylesbury,UK
48,Luisa,Devereux,ldevereux@gmail.com,LS9 7JH,Burmantofts and Richmond Hill,UK
49,Pedro,Aschoff,paschoff@yahoo.com,SK13 8BB,Howard Town Ward,Howard Town Ward
50,Carrol,Kunimitsu,carrol_kunimitsu@yahoo.com,GU9 9AS,Farnham,UK
51,Alba,Mosseri,alba@gmail.com,NG9 1AE,Beeston West Ward,UK